{"fetched_at":"2026-07-14T06:34:16.734Z","source":"https://celestrak.org/NORAD/elements/gp.php?GROUP=globalstar&FORMAT=JSON","constellation":"globalstar","records":[{"OBJECT_NAME":"GLOBALSTAR M069","OBJECT_ID":"2007-020C","EPOCH":"2026-07-13T08:29:04.200576","CLASSIFICATION_TYPE":"U","MEAN_MOTION":12.23472181,"ECCENTRICITY":0.00017055,"INCLINATION":52.0009,"RA_OF_ASC_NODE":178.0647,"ARG_OF_PERICENTER":206.3991,"MEAN_ANOMALY":300.8376,"EPHEMERIS_TYPE":0,"NORAD_CAT_ID":31573,"ELEMENT_SET_NO":999,"REV_AT_EPOCH":88200,"BSTAR":0.000025942129,"MEAN_MOTION_DOT":-9e-7,"MEAN_MOTION_DDOT":0},{"OBJECT_NAME":"GLOBALSTAR M072","OBJECT_ID":"2007-020D","EPOCH":"2026-07-13T17:30:23.361120","CLASSIFICATION_TYPE":"U","MEAN_MOTION":11.91658731,"ECCENTRICITY":0.0001647,"INCLINATION":51.9946,"RA_OF_ASC_NODE":29.5827,"ARG_OF_PERICENTER":32.6582,"MEAN_ANOMALY":48.7014,"EPHEMERIS_TYPE":0,"NORAD_CAT_ID":31574,"ELEMENT_SET_NO":999,"REV_AT_EPOCH":87814,"BSTAR":0.00016373,"MEAN_MOTION_DOT":-7.2e-7,"MEAN_MOTION_DDOT":0},{"OBJECT_NAME":"GLOBALSTAR M066","OBJECT_ID":"2007-048C","EPOCH":"2026-07-13T17:33:16.168032","CLASSIFICATION_TYPE":"U","MEAN_MOTION":12.30389241,"ECCENTRICITY":0.0005628,"INCLINATION":51.9612,"RA_OF_ASC_NODE":341.7125,"ARG_OF_PERICENTER":98.6458,"MEAN_ANOMALY":5.6976,"EPHEMERIS_TYPE":0,"NORAD_CAT_ID":32265,"ELEMENT_SET_NO":999,"REV_AT_EPOCH":86349,"BSTAR":0.00023358,"MEAN_MOTION_DOT":-6.7e-7,"MEAN_MOTION_DDOT":0},{"OBJECT_NAME":"GLOBALSTAR M079","OBJECT_ID":"2010-054A","EPOCH":"2026-07-13T19:56:52.206720","CLASSIFICATION_TYPE":"U","MEAN_MOTION":12.62266416,"ECCENTRICITY":0.0001114,"INCLINATION":52.0051,"RA_OF_ASC_NODE":27.5617,"ARG_OF_PERICENTER":75.545,"MEAN_ANOMALY":30.4798,"EPHEMERIS_TYPE":0,"NORAD_CAT_ID":37188,"ELEMENT_SET_NO":999,"REV_AT_EPOCH":72591,"BSTAR":0.000017645,"MEAN_MOTION_DOT":-0.00000101,"MEAN_MOTION_DDOT":0},{"OBJECT_NAME":"GLOBALSTAR M074","OBJECT_ID":"2010-054B","EPOCH":"2026-07-13T20:34:11.122752","CLASSIFICATION_TYPE":"U","MEAN_MOTION":12.62262021,"ECCENTRICITY":0.0000869,"INCLINATION":52.003,"RA_OF_ASC_NODE":26.7441,"ARG_OF_PERICENTER":91.6374,"MEAN_ANOMALY":12.1957,"EPHEMERIS_TYPE":0,"NORAD_CAT_ID":37189,"ELEMENT_SET_NO":999,"REV_AT_EPOCH":72652,"BSTAR":0.000027854,"MEAN_MOTION_DOT":-9.9e-7,"MEAN_MOTION_DDOT":0},{"OBJECT_NAME":"GLOBALSTAR M076","OBJECT_ID":"2010-054C","EPOCH":"2026-07-13T19:38:42.000288","CLASSIFICATION_TYPE":"U","MEAN_MOTION":12.62262314,"ECCENTRICITY":0.0001094,"INCLINATION":52.0044,"RA_OF_ASC_NODE":27.0671,"ARG_OF_PERICENTER":87.9789,"MEAN_ANOMALY":80.5807,"EPHEMERIS_TYPE":0,"NORAD_CAT_ID":37190,"ELEMENT_SET_NO":999,"REV_AT_EPOCH":72623,"BSTAR":0.000094326,"MEAN_MOTION_DOT":-8.7e-7,"MEAN_MOTION_DDOT":0},{"OBJECT_NAME":"GLOBALSTAR M077","OBJECT_ID":"2010-054D","EPOCH":"2026-07-13T06:14:01.402080","CLASSIFICATION_TYPE":"U","MEAN_MOTION":11.67547614,"ECCENTRICITY":0.0002303,"INCLINATION":51.9951,"RA_OF_ASC_NODE":113.119,"ARG_OF_PERICENTER":221.6558,"MEAN_ANOMALY":307.2346,"EPHEMERIS_TYPE":0,"NORAD_CAT_ID":37191,"ELEMENT_SET_NO":999,"REV_AT_EPOCH":72418,"BSTAR":-0.00027194,"MEAN_MOTION_DOT":-9.3e-7,"MEAN_MOTION_DDOT":0},{"OBJECT_NAME":"GLOBALSTAR M075","OBJECT_ID":"2010-054E","EPOCH":"2026-07-13T19:28:34.500288","CLASSIFICATION_TYPE":"U","MEAN_MOTION":12.62267781,"ECCENTRICITY":0.0000722,"INCLINATION":51.995,"RA_OF_ASC_NODE":69.1275,"ARG_OF_PERICENTER":62.5796,"MEAN_ANOMALY":14.5017,"EPHEMERIS_TYPE":0,"NORAD_CAT_ID":37192,"ELEMENT_SET_NO":999,"REV_AT_EPOCH":72530,"BSTAR":0.000028164,"MEAN_MOTION_DOT":-9.9e-7,"MEAN_MOTION_DDOT":0},{"OBJECT_NAME":"GLOBALSTAR M073","OBJECT_ID":"2010-054F","EPOCH":"2026-07-13T17:43:46.743744","CLASSIFICATION_TYPE":"U","MEAN_MOTION":12.62266866,"ECCENTRICITY":0.0001081,"INCLINATION":52.0081,"RA_OF_ASC_NODE":343.4703,"ARG_OF_PERICENTER":94.4555,"MEAN_ANOMALY":10.101,"EPHEMERIS_TYPE":0,"NORAD_CAT_ID":37193,"ELEMENT_SET_NO":999,"REV_AT_EPOCH":72728,"BSTAR":-0.00001327,"MEAN_MOTION_DOT":-0.00000106,"MEAN_MOTION_DDOT":0},{"OBJECT_NAME":"GLOBALSTAR M083","OBJECT_ID":"2011-033A","EPOCH":"2026-07-13T10:17:30.753024","CLASSIFICATION_TYPE":"U","MEAN_MOTION":12.6226405,"ECCENTRICITY":0.00008115,"INCLINATION":51.9869,"RA_OF_ASC_NODE":292.6077,"ARG_OF_PERICENTER":104.0858,"MEAN_ANOMALY":332.8024,"EPHEMERIS_TYPE":0,"NORAD_CAT_ID":37739,"ELEMENT_SET_NO":999,"REV_AT_EPOCH":69626,"BSTAR":0.00010541539,"MEAN_MOTION_DOT":-8.5e-7,"MEAN_MOTION_DDOT":0},{"OBJECT_NAME":"GLOBALSTAR M088","OBJECT_ID":"2011-033B","EPOCH":"2026-07-13T10:08:07.116576","CLASSIFICATION_TYPE":"U","MEAN_MOTION":12.62269452,"ECCENTRICITY":0.00000786,"INCLINATION":52.0186,"RA_OF_ASC_NODE":199.1173,"ARG_OF_PERICENTER":147.82,"MEAN_ANOMALY":18.0885,"EPHEMERIS_TYPE":0,"NORAD_CAT_ID":37740,"ELEMENT_SET_NO":999,"REV_AT_EPOCH":69180,"BSTAR":0.000065817584,"MEAN_MOTION_DOT":-9.2e-7,"MEAN_MOTION_DDOT":0},{"OBJECT_NAME":"GLOBALSTAR M091","OBJECT_ID":"2011-033C","EPOCH":"2026-07-13T06:30:02.365344","CLASSIFICATION_TYPE":"U","MEAN_MOTION":12.62264251,"ECCENTRICITY":0.0000383,"INCLINATION":51.9977,"RA_OF_ASC_NODE":162.5044,"ARG_OF_PERICENTER":20.3238,"MEAN_ANOMALY":117.6967,"EPHEMERIS_TYPE":0,"NORAD_CAT_ID":37741,"ELEMENT_SET_NO":999,"REV_AT_EPOCH":69257,"BSTAR":-0.000059617,"MEAN_MOTION_DOT":-0.00000114,"MEAN_MOTION_DDOT":0},{"OBJECT_NAME":"GLOBALSTAR M085","OBJECT_ID":"2011-033D","EPOCH":"2026-07-13T06:20:35.665152","CLASSIFICATION_TYPE":"U","MEAN_MOTION":12.62264316,"ECCENTRICITY":0.0000747,"INCLINATION":52.0122,"RA_OF_ASC_NODE":113.8395,"ARG_OF_PERICENTER":38.3068,"MEAN_ANOMALY":129.9147,"EPHEMERIS_TYPE":0,"NORAD_CAT_ID":37742,"ELEMENT_SET_NO":999,"REV_AT_EPOCH":69308,"BSTAR":-0.00005652,"MEAN_MOTION_DOT":-0.00000114,"MEAN_MOTION_DDOT":0},{"OBJECT_NAME":"GLOBALSTAR M081","OBJECT_ID":"2011-033E","EPOCH":"2026-07-13T04:58:34.194144","CLASSIFICATION_TYPE":"U","MEAN_MOTION":12.62265286,"ECCENTRICITY":0.00006349,"INCLINATION":51.9951,"RA_OF_ASC_NODE":116.4193,"ARG_OF_PERICENTER":52.1765,"MEAN_ANOMALY":96.9089,"EPHEMERIS_TYPE":0,"NORAD_CAT_ID":37743,"ELEMENT_SET_NO":999,"REV_AT_EPOCH":69322,"BSTAR":-0.00010446786,"MEAN_MOTION_DOT":-0.00000122,"MEAN_MOTION_DDOT":0},{"OBJECT_NAME":"GLOBALSTAR M089","OBJECT_ID":"2011-033F","EPOCH":"2026-07-13T20:45:51.818112","CLASSIFICATION_TYPE":"U","MEAN_MOTION":12.62267575,"ECCENTRICITY":0.0000686,"INCLINATION":51.9934,"RA_OF_ASC_NODE":68.5701,"ARG_OF_PERICENTER":88.1459,"MEAN_ANOMALY":352.824,"EPHEMERIS_TYPE":0,"NORAD_CAT_ID":37744,"ELEMENT_SET_NO":999,"REV_AT_EPOCH":69415,"BSTAR":0.000042584,"MEAN_MOTION_DOT":-9.6e-7,"MEAN_MOTION_DDOT":0},{"OBJECT_NAME":"GLOBALSTAR M084","OBJECT_ID":"2011-080A","EPOCH":"2026-07-13T11:34:38.451072","CLASSIFICATION_TYPE":"U","MEAN_MOTION":12.62263497,"ECCENTRICITY":0.0000876,"INCLINATION":52.0021,"RA_OF_ASC_NODE":297.232,"ARG_OF_PERICENTER":127.5884,"MEAN_ANOMALY":312.9037,"EPHEMERIS_TYPE":0,"NORAD_CAT_ID":38040,"ELEMENT_SET_NO":999,"REV_AT_EPOCH":67208,"BSTAR":0.0000782701,"MEAN_MOTION_DOT":-9e-7,"MEAN_MOTION_DDOT":0}]}
